[{"OBJECT_NAME":"STARLINK-11554 [DTC]","OBJECT_ID":"2025-019E","EPOCH":"2026-03-09T00:43:54.751584","MEAN_MOTION":15.70874198,"ECCENTRICITY":9.537e-5,"INCLINATION":42.9984,"RA_OF_ASC_NODE":310.262,"ARG_OF_PERICENTER":228.4783,"MEAN_ANOMALY":131.6003,"EPHEMERIS_TYPE":0,"CLASSIFICATION_TYPE":"U","NORAD_CAT_ID":62833,"ELEMENT_SET_NO":999,"REV_AT_EPOCH":6377,"BSTAR":0.00050143402,"MEAN_MOTION_DOT":0.00064485,"MEAN_MOTION_DDOT":0},{"OBJECT_NAME":"CZ-6A DEB","OBJECT_ID":"2024-140AY","EPOCH":"2026-03-09T23:18:41.702400","MEAN_MOTION":15.62067616,"ECCENTRICITY":0.0034385,"INCLINATION":89.347,"RA_OF_ASC_NODE":305.7787,"ARG_OF_PERICENTER":51.1175,"MEAN_ANOMALY":309.3152,"EPHEMERIS_TYPE":0,"CLASSIFICATION_TYPE":"U","NORAD_CAT_ID":60647,"ELEMENT_SET_NO":999,"REV_AT_EPOCH":8292,"BSTAR":0.0060093898,"MEAN_MOTION_DOT":0.00575832,"MEAN_MOTION_DDOT":0}]
